STARLINK-1133           
1 45064U 20006W   26068.73076735 -.00000811  00000+0 -15247-4 0  9991
2 45064  53.1613 257.6114 0001370  88.8538 271.2620 15.30189808336888
SKYKRAFT-1A             
1 55054U 23001AX  26068.71064616  .00008177  00000+0  30069-3 0  9991
2 55054  97.3349 127.6290 0011277 121.5092 238.7251 15.28083228176529
